{
"type": "FeatureCollection",
"name": "Admin",
"crs": { "type": "name", "properties": { "name": "urn:ogc:def:crs:OGC:1.3:CRS84" } },
"features": [
{ "type": "Feature", "properties": { "fid": 1, "ID_0": 39, "ISO": "BDI", "NAME_0": "Burundi", "ID_1": 1, "NAME_1": "Bubanza", "TYPE_1": "Province", "ENGTYPE_1": "Province", "NL_NAME_1": null, "VARNAME_1": null }, "geometry": { "type": "MultiPolygon", "coordinates": [ [ [ [ 29.288843154907397, -3.032263040542603 ], [ 29.525072097778605, -3.249253988265934 ], [ 29.278415679931641, -3.319144964218026 ], [ 29.288843154907397, -3.032263040542603 ] ] ] ] } },
{ "type": "Feature", "properties": { "fid": 2, "ID_0": 39, "ISO": "BDI", "NAME_0": "Burundi", "ID_1": 2, "NAME_1": "Bujumbura Mairie", "TYPE_1": "Province", "ENGTYPE_1": "Province", "NL_NAME_1": null, "VARNAME_1": null }, "geometry": { "type": "MultiPolygon", "coordinates": [ [ [ [ 29.219360351562671, -3.425462007522583 ], [ 29.425697326660099, -3.324676036834717 ], [ 29.375335693359489, -3.47870397567749 ], [ 29.219360351562671, -3.425462007522583 ] ] ] ] } },
{ "type": "Feature", "properties": { "fid": 3, "ID_0": 39, "ISO": "BDI", "NAME_0": "Burundi", "ID_1": 3, "NAME_1": "Bujumbura Rural", "TYPE_1": "Province", "ENGTYPE_1": "Province", "NL_NAME_1": null, "VARNAME_1": "Usumbura" }, "geometry": { "type": "MultiPolygon", "coordinates": [ [ [ [ 29.203826904297159, -3.297185897827092 ], [ 29.587007522583065, -3.544219970703125 ], [ 29.241844177246264, -3.713788986206055 ], [ 29.203826904297159, -3.297185897827092 ] ] ] ] } },
{ "type": "Feature", "properties": { "fid": 4, "ID_0": 39, "ISO": "BDI", "NAME_0": "Burundi", "ID_1": 4, "NAME_1": "Bururi", "TYPE_1": "Province", "ENGTYPE_1": "Province", "NL_NAME_1": null, "VARNAME_1": null }, "geometry": { "type": "MultiPolygon", "coordinates": [ [ [ [ 29.241844177246264, -3.713788986206055 ], [ 29.905395507812443, -3.877506971359253 ], [ 29.379934310913086, -4.187809944152775 ], [ 29.241844177246264, -3.713788986206055 ] ] ] ] } },
{ "type": "Feature", "properties": { "fid": 5, "ID_0": 39, "ISO": "BDI", "NAME_0": "Burundi", "ID_1": 5, "NAME_1": "Cankuzo", "TYPE_1": "Province", "ENGTYPE_1": "Province", "NL_NAME_1": null, "VARNAME_1": null }, "geometry": { "type": "MultiPolygon", "coordinates": [ [ [ [ 30.316436767578068, -3.206557989120483 ], [ 30.850225448608683, -2.97951698303217 ], [ 30.577310562133846, -3.396795034408512 ], [ 30.316436767578068, -3.206557989120483 ] ] ] ] } },
{ "type": "Feature", "properties": { "fid": 6, "ID_0": 39, "ISO": "BDI", "NAME_0": "Burundi", "ID_1": 6, "NAME_1": "Cibitoke", "TYPE_1": "Province", "ENGTYPE_1": "Province", "NL_NAME_1": null, "VARNAME_1": null }, "geometry": { "type": "MultiPolygon", "coordinates": [ [ [ [ 29.001749038696232, -2.810211896896362 ], [ 29.485195159912166, -2.916440963745117 ], [ 29.288501739502124, -3.100739955902043 ], [ 29.001749038696232, -2.810211896896362 ] ] ] ] } },
{ "type": "Feature", "properties": { "fid": 7, "ID_0": 39, "ISO": "BDI", "NAME_0": "Burundi", "ID_1": 7, "NAME_1": "Gitega", "TYPE_1": "Province", "ENGTYPE_1": "Province", "NL_NAME_1": null, "VARNAME_1": "Kitega" }, "geometry": { "type": "MultiPolygon", "coordinates": [ [ [ [ 29.717615127563647, -3.647773981094304 ], [ 30.104759216308764, -3.59586596488947 ], [ 29.944547653198299, -3.845057964324951 ], [ 29.717615127563647, -3.647773981094304 ] ] ] ] } },
{ "type": "Feature", "properties": { "fid": 8, "ID_0": 39, "ISO": "BDI", "NAME_0": "Burundi", "ID_1": 8, "NAME_1": "Karuzi", "TYPE_1": "Province", "ENGTYPE_1": "Province", "NL_NAME_1": null, "VARNAME_1": "Karusi" }, "geometry": { "type": "MultiPolygon", "coordinates": [ [ [ [ 29.896781921387003, -3.144335031509399 ], [ 30.34988975524908, -3.15421199798584 ], [ 30.013549804687443, -3.393871068954468 ], [ 29.896781921387003, -3.144335031509399 ] ] ] ] } },
{ "type": "Feature", "properties": { "fid": 9, "ID_0": 39, "ISO": "BDI", "NAME_0": "Burundi", "ID_1": 9, "NAME_1": "Kayanza", "TYPE_1": "Province", "ENGTYPE_1": "Province", "NL_NAME_1": null, "VARNAME_1": null }, "geometry": { "type": "MultiPolygon", "coordinates": [ [ [ [ 29.430484771728743, -2.804667472839242 ], [ 29.879236221313704, -3.005367994308472 ], [ 29.738563537597656, -3.229259967803898 ], [ 29.430484771728743, -2.804667472839242 ] ] ] ] } },
{ "type": "Feature", "properties": { "fid": 10, "ID_0": 39, "ISO": "BDI", "NAME_0": "Burundi", "ID_1": 10, "NAME_1": "Kirundo", "TYPE_1": "Province", "ENGTYPE_1": "Province", "NL_NAME_1": null, "VARNAME_1": null }, "geometry": { "type": "MultiPolygon", "coordinates": [ [ [ [ 30.061771392822266, -2.782917976379395 ], [ 30.372455596923999, -2.356183052062931 ], [ 30.400236129760799, -2.594280958175545 ], [ 30.061771392822266, -2.782917976379395 ] ] ] ] } },
{ "type": "Feature", "properties": { "fid": 11, "ID_0": 39, "ISO": "BDI", "NAME_0": "Burundi", "ID_1": 11, "NAME_1": "Makamba", "TYPE_1": "Province", "ENGTYPE_1": "Province", "NL_NAME_1": null, "VARNAME_1": null }, "geometry": { "type": "MultiPolygon", "coordinates": [ [ [ [ 29.379934310913086, -4.187809944152775 ], [ 30.191719055175952, -4.054073810577393 ], [ 29.391475677490405, -4.445250034332219 ], [ 29.379934310913086, -4.187809944152775 ] ] ] ] } },
{ "type": "Feature", "properties": { "fid": 12, "ID_0": 39, "ISO": "BDI", "NAME_0": "Burundi", "ID_1": 12, "NAME_1": "Muramvya", "TYPE_1": "Province", "ENGTYPE_1": "Province", "NL_NAME_1": null, "VARNAME_1": "Muramviya" }, "geometry": { "type": "MultiPolygon", "coordinates": [ [ [ [ 29.521823883056697, -3.339720964431706 ], [ 29.851808547973917, -3.232918977737427 ], [ 29.659637451171932, -3.426223039627018 ], [ 29.521823883056697, -3.339720964431706 ] ] ] ] } },
{ "type": "Feature", "properties": { "fid": 13, "ID_0": 39, "ISO": "BDI", "NAME_0": "Burundi", "ID_1": 13, "NAME_1": "Muyinga", "TYPE_1": "Province", "ENGTYPE_1": "Province", "NL_NAME_1": null, "VARNAME_1": "Muhinga" }, "geometry": { "type": "MultiPolygon", "coordinates": [ [ [ [ 30.077131271362362, -2.783128976821843 ], [ 30.488830566406534, -2.951302051544189 ], [ 30.272634506225643, -3.154603958129883 ], [ 30.077131271362362, -2.783128976821843 ] ] ] ] } },
{ "type": "Feature", "properties": { "fid": 14, "ID_0": 39, "ISO": "BDI", "NAME_0": "Burundi", "ID_1": 14, "NAME_1": "Mwaro", "TYPE_1": "Province", "ENGTYPE_1": "Province", "NL_NAME_1": null, "VARNAME_1": null }, "geometry": { "type": "MultiPolygon", "coordinates": [ [ [ [ 29.581552505493448, -3.349040985107365 ], [ 29.8508434295656, -3.507534027099553 ], [ 29.669218063354435, -3.720139980316105 ], [ 29.581552505493448, -3.349040985107365 ] ] ] ] } },
{ "type": "Feature", "properties": { "fid": 15, "ID_0": 39, "ISO": "BDI", "NAME_0": "Burundi", "ID_1": 15, "NAME_1": "Ngozi", "TYPE_1": "Province", "ENGTYPE_1": "Province", "NL_NAME_1": null, "VARNAME_1": null }, "geometry": { "type": "MultiPolygon", "coordinates": [ [ [ [ 29.635974884033317, -2.847625970840397 ], [ 30.193384170532283, -2.859354972839355 ], [ 29.912431716919002, -3.087337970733586 ], [ 29.635974884033317, -2.847625970840397 ] ] ] ] } },
{ "type": "Feature", "properties": { "fid": 16, "ID_0": 39, "ISO": "BDI", "NAME_0": "Burundi", "ID_1": 16, "NAME_1": "Rutana", "TYPE_1": "Province", "ENGTYPE_1": "Province", "NL_NAME_1": null, "VARNAME_1": null }, "geometry": { "type": "MultiPolygon", "coordinates": [ [ [ [ 29.890106201172159, -3.842442989349365 ], [ 30.410375595093058, -3.784392118453923 ], [ 29.819265365600643, -4.080725193023682 ], [ 29.890106201172159, -3.842442989349365 ] ] ] ] } },
{ "type": "Feature", "properties": { "fid": 17, "ID_0": 39, "ISO": "BDI", "NAME_0": "Burundi", "ID_1": 17, "NAME_1": "Ruyigi", "TYPE_1": "Province", "ENGTYPE_1": "Province", "NL_NAME_1": null, "VARNAME_1": null }, "geometry": { "type": "MultiPolygon", "coordinates": [ [ [ [ 30.054660797119311, -3.476083993911629 ], [ 30.678144454956112, -3.398518085479736 ], [ 30.389905929565487, -3.724756956100464 ], [ 30.054660797119311, -3.476083993911629 ] ] ] ] } }
]
}
